{
  "type": "FeatureCollection",
  "features": [
    {
      "type": "Feature",
      "properties": {
        "norad_id": 35200,
        "name": "FENGYUN 1C DEB",
        "group": "fengyun-1c-debris",
        "lat": 44.18237105739663,
        "lon": 161.65410154469134,
        "alt_km": 1134.2551279113595,
        "timestamp": "2025-12-22T16:55:17.751327+00:00",
        "meta_object_name": "FENGYUN 1C DEB",
        "meta_object_id": "1999-025DPG",
        "meta_epoch": "2025-12-22T05:36:40.656096",
        "meta_mean_motion": 13.41966977,
        "meta_eccentricity": 0.03531334,
        "meta_inclination": 98.8712,
        "meta_ra_of_asc_node": 332.5091,
        "meta_arg_of_pericenter": 36.3902,
        "meta_mean_anomaly": 339.1485,
        "meta_ephemeris_type": 0,
        "meta_classification_type": "U",
        "meta_norad_cat_id": 35200,
        "meta_element_set_no": 999,
        "meta_rev_at_epoch": 66031,
        "meta_bstar": 0.0004527153,
        "meta_mean_motion_dot": 3.32e-06,
        "meta_mean_motion_ddot": 0,
        "tle_line1": "1 35200U 99025DPG 25356.23380389  .00000332  00000+0  45272-3 0  9992",
        "tle_line2": "2 35200  98.8712 332.5091 0353133  36.3902 339.1485 13.41966977660313"
      },
      "geometry": {
        "type": "Point",
        "coordinates": [
          161.65410154469134,
          44.18237105739663
        ]
      }
    },
    {
      "type": "Feature",
      "properties": {
        "norad_id": 35201,
        "name": "FENGYUN 1C DEB",
        "group": "fengyun-1c-debris",
        "lat": 17.21244865967198,
        "lon": 2.7158510073786277,
        "alt_km": 860.3111532423682,
        "timestamp": "2025-12-22T16:55:17.751338+00:00",
        "meta_object_name": "FENGYUN 1C DEB",
        "meta_object_id": "1999-025DPH",
        "meta_epoch": "2025-12-21T06:54:48.521376",
        "meta_mean_motion": 14.11055741,
        "meta_eccentricity": 0.0006089,
        "meta_inclination": 98.7075,
        "meta_ra_of_asc_node": 4.0634,
        "meta_arg_of_pericenter": 221.9619,
        "meta_mean_anomaly": 161.4604,
        "meta_ephemeris_type": 0,
        "meta_classification_type": "U",
        "meta_norad_cat_id": 35201,
        "meta_element_set_no": 999,
        "meta_rev_at_epoch": 87140,
        "meta_bstar": 6.191e-05,
        "meta_mean_motion_dot": 6.9e-07,
        "meta_mean_motion_ddot": 0,
        "tle_line1": "1 35201U 99025DPH 25355.28806159  .00000069  00000+0  61910-4 0  9990",
        "tle_line2": "2 35201  98.7075   4.0634 0006089 221.9619 161.4604 14.11055741871400"
      },
      "geometry": {
        "type": "Point",
        "coordinates": [
          2.7158510073786277,
          17.21244865967198
        ]
      }
    },
    {
      "type": "Feature",
      "properties": {
        "norad_id": 35202,
        "name": "FENGYUN 1C DEB",
        "group": "fengyun-1c-debris",
        "lat": 66.99181353302765,
        "lon": -113.59267303936937,
        "alt_km": 1281.873242566946,
        "timestamp": "2025-12-22T16:55:17.751348+00:00",
        "meta_object_name": "FENGYUN 1C DEB",
        "meta_object_id": "1999-025DPJ",
        "meta_epoch": "2025-12-16T02:04:31.277568",
        "meta_mean_motion": 13.34745262,
        "meta_eccentricity": 0.03737817,
        "meta_inclination": 100.0908,
        "meta_ra_of_asc_node": 35.0737,
        "meta_arg_of_pericenter": 0.1614,
        "meta_mean_anomaly": 359.9571,
        "meta_ephemeris_type": 0,
        "meta_classification_type": "U",
        "meta_norad_cat_id": 35202,
        "meta_element_set_no": 999,
        "meta_rev_at_epoch": 57021,
        "meta_bstar": 0.00048107163,
        "meta_mean_motion_dot": 3.14e-06,
        "meta_mean_motion_ddot": 0,
        "tle_line1": "1 35202U 99025DPJ 25350.08647312  .00000314  00000+0  48107-3 0  9993",
        "tle_line2": "2 35202 100.0908  35.0737 0373781   0.1614 359.9571 13.34745262570219"
      },
      "geometry": {
        "type": "Point",
        "coordinates": [
          -113.59267303936937,
          66.99181353302765
        ]
      }
    },
    {
      "type": "Feature",
      "properties": {
        "norad_id": 35203,
        "name": "FENGYUN 1C DEB",
        "group": "fengyun-1c-debris",
        "lat": -74.90356521329896,
        "lon": 92.85180851867494,
        "alt_km": 1365.7672231917386,
        "timestamp": "2025-12-22T16:55:17.751358+00:00",
        "meta_object_name": "FENGYUN 1C DEB",
        "meta_object_id": "1999-025DPK",
        "meta_epoch": "2025-12-18T04:51:07.976160",
        "meta_mean_motion": 13.26442898,
        "meta_eccentricity": 0.05113843,
        "meta_inclination": 102.0718,
        "meta_ra_of_asc_node": 320.0969,
        "meta_arg_of_pericenter": 147.2129,
        "meta_mean_anomaly": 216.1835,
        "meta_ephemeris_type": 0,
        "meta_classification_type": "U",
        "meta_norad_cat_id": 35203,
        "meta_element_set_no": 999,
        "meta_rev_at_epoch": 59723,
        "meta_bstar": 0.0016099013,
        "meta_mean_motion_dot": 1.395e-05,
        "meta_mean_motion_ddot": 0,
        "tle_line1": "1 35203U 99025DPK 25352.20217565  .00001395  00000+0  16099-2 0  9997",
        "tle_line2": "2 35203 102.0718 320.0969 0511384 147.2129 216.1835 13.26442898597230"
      },
      "geometry": {
        "type": "Point",
        "coordinates": [
          92.85180851867494,
          -74.90356521329896
        ]
      }
    },
    {
      "type": "Feature",
      "properties": {
        "norad_id": 35204,
        "name": "FENGYUN 1C DEB",
        "group": "fengyun-1c-debris",
        "lat": -21.106078960730365,
        "lon": 2.3963009571327656,
        "alt_km": 735.7577723050545,
        "timestamp": "2025-12-22T16:55:17.751369+00:00",
        "meta_object_name": "FENGYUN 1C DEB",
        "meta_object_id": "1999-025DPL",
        "meta_epoch": "2025-12-21T09:03:39.055968",
        "meta_mean_motion": 14.48905432,
        "meta_eccentricity": 0.00394837,
        "meta_inclination": 99.0069,
        "meta_ra_of_asc_node": 184.4907,
        "meta_arg_of_pericenter": 298.2194,
        "meta_mean_anomaly": 182.9509,
        "meta_ephemeris_type": 0,
        "meta_classification_type": "U",
        "meta_norad_cat_id": 35204,
        "meta_element_set_no": 999,
        "meta_rev_at_epoch": 91055,
        "meta_bstar": 0.0016476709,
        "meta_mean_motion_dot": 6.251e-05,
        "meta_mean_motion_ddot": 0,
        "tle_line1": "1 35204U 99025DPL 25355.37753537  .00006251  00000+0  16477-2 0  9999",
        "tle_line2": "2 35204  99.0069 184.4907 0039483 298.2194 182.9509 14.48905432910558"
      },
      "geometry": {
        "type": "Point",
        "coordinates": [
          2.3963009571327656,
          -21.106078960730365
        ]
      }
    },
    {
      "type": "Feature",
      "properties": {
        "norad_id": 35207,
        "name": "FENGYUN 1C DEB",
        "group": "fengyun-1c-debris",
        "lat": -5.548509016101542,
        "lon": 96.2852539204017,
        "alt_km": 735.8538785011251,
        "timestamp": "2025-12-22T16:55:17.751402+00:00",
        "meta_object_name": "FENGYUN 1C DEB",
        "meta_object_id": "1999-025DPP",
        "meta_epoch": "2025-12-18T12:18:35.176032",
        "meta_mean_motion": 14.55542717,
        "meta_eccentricity": 0.00552305,
        "meta_inclination": 98.6905,
        "meta_ra_of_asc_node": 91.073,
        "meta_arg_of_pericenter": 237.6836,
        "meta_mean_anomaly": 121.9005,
        "meta_ephemeris_type": 0,
        "meta_classification_type": "U",
        "meta_norad_cat_id": 35207,
        "meta_element_set_no": 999,
        "meta_rev_at_epoch": 64988,
        "meta_bstar": 0.0018220991,
        "meta_mean_motion_dot": 8.059e-05,
        "meta_mean_motion_ddot": 0,
        "tle_line1": "1 35207U 99025DPP 25352.51290713  .00008059  00000+0  18221-2 0  9994",
        "tle_line2": "2 35207  98.6905  91.0730 0055230 237.6836 121.9005 14.55542717649880"
      },
      "geometry": {
        "type": "Point",
        "coordinates": [
          96.2852539204017,
          -5.548509016101542
        ]
      }
    },
    {
      "type": "Feature",
      "properties": {
        "norad_id": 35208,
        "name": "FENGYUN 1C DEB",
        "group": "fengyun-1c-debris",
        "lat": 38.06343540167017,
        "lon": -157.3177798414913,
        "alt_km": 819.9276240637519,
        "timestamp": "2025-12-22T16:55:17.751413+00:00",
        "meta_object_name": "FENGYUN 1C DEB",
        "meta_object_id": "1999-025DPQ",
        "meta_epoch": "2025-12-12T19:29:45.564288",
        "meta_mean_motion": 13.99657071,
        "meta_eccentricity": 0.01013151,
        "meta_inclination": 98.903,
        "meta_ra_of_asc_node": 6.0094,
        "meta_arg_of_pericenter": 156.4473,
        "meta_mean_anomaly": 204.1379,
        "meta_ephemeris_type": 0,
        "meta_classification_type": "U",
        "meta_norad_cat_id": 35208,
        "meta_element_set_no": 999,
        "meta_rev_at_epoch": 90564,
        "meta_bstar": 0.0013122763,
        "meta_mean_motion_dot": 1.963e-05,
        "meta_mean_motion_ddot": 0,
        "tle_line1": "1 35208U 99025DPQ 25346.81233292  .00001963  00000+0  13123-2 0  9993",
        "tle_line2": "2 35208  98.9030   6.0094 0101315 156.4473 204.1379 13.99657071905647"
      },
      "geometry": {
        "type": "Point",
        "coordinates": [
          -157.3177798414913,
          38.06343540167017
        ]
      }
    }
  ]
}